0 CZ-4 DEB
1 37625U 90081DM  13282.34407672  .00001463  00000-0  57782-3 0  1921
2 37625 098.5521 320.5389 0000765 241.9739 118.1248 14.30521974567793
0 CZ-4 DEB
1 37625U 90081DM  13285.91123722  .00001560  00000-0  61512-3 0  1933
2 37625 098.5522 324.0467 0001385 196.8291 163.3112 14.30534269568301
0 CZ-4 DEB
1 37625U 90081DM  13289.33847019  .00001654  00000-0  65104-3 0  1941
2 37625 098.5511 327.4140 0001626 237.4756 122.6545 14.30547401568793
0 CZ-4 DEB
1 37625U 90081DM  13295.35354615  .00002010  00000-0  78693-3 0  1950
2 37625 098.5541 333.3346 0001111 176.9644 183.2697 14.30575070569652
